{"type":"FeatureCollection","features":[{"type":"Feature","properties":{"name":"Knollwood Village","homes":615},"geometry":{"type":"Polygon","coordinates":[[[-95.43098,29.68686],[-95.431,29.69049],[-95.43047,29.69055],[-95.4297,29.69075],[-95.4296,29.6907],[-95.42939,29.69029],[-95.42922,29.69021],[-95.42505,29.69025],[-95.42487,29.69033],[-95.4248,29.69054],[-95.4249,29.69636],[-95.42484,29.69645],[-95.42402,29.69645],[-95.42289,29.69614],[-95.42234,29.69583],[-95.42229,29.69549],[-95.42211,29.69534],[-95.42197,29.69535],[-95.42176,29.69549],[-95.42072,29.69524],[-95.42023,29.69531],[-95.42014,29.69525],[-95.41994,29.68841],[-95.42003,29.68833],[-95.42115,29.6883],[-95.42131,29.68824],[-95.42205,29.68729],[-95.42206,29.68651],[-95.42211,29.68643],[-95.42574,29.68636],[-95.42723,29.68639],[-95.42927,29.68632],[-95.42935,29.68638],[-95.42939,29.68664],[-95.42954,29.68676],[-95.43091,29.68676],[-95.43098,29.68686]]]}},{"type":"Feature","properties":{"name":"Woodside","homes":516},"geometry":{"type":"Polygon","coordinates":[[[-95.43996,29.68628],[-95.43985,29.68637],[-95.43474,29.68644],[-95.43465,29.68635],[-95.43463,29.6857],[-95.43446,29.68553],[-95.43125,29.68552],[-95.4312,29.68475],[-95.43116,29.68106],[-95.43122,29.68085],[-95.43116,29.68066],[-95.43117,29.67882],[-95.43164,29.67879],[-95.43221,29.67889],[-95.43415,29.67945],[-95.4355,29.67968],[-95.43889,29.67977],[-95.43896,29.68326],[-95.43908,29.68344],[-95.43993,29.6839],[-95.43996,29.68628]]]}},{"type":"Feature","properties":{"name":"Westridge","homes":222},"geometry":{"type":"Polygon","coordinates":[[[-95.4314,29.68489],[-95.43139,29.68551],[-95.43087,29.68555],[-95.43069,29.68547],[-95.43032,29.68544],[-95.42777,29.68538],[-95.42769,29.68531],[-95.42763,29.68499],[-95.42729,29.68484],[-95.42724,29.68178],[-95.42713,29.68111],[-95.42699,29.68079],[-95.42807,29.67939],[-95.42882,29.6797],[-95.4292,29.67951],[-95.43129,29.68059],[-95.43133,29.68441],[-95.4314,29.68489]]]}},{"type":"Feature","properties":{"name":"Linkwood","homes":149},"geometry":{"type":"Polygon","coordinates":[[[-95.43998,29.688],[-95.44,29.68958],[-95.43993,29.68965],[-95.43888,29.68953],[-95.43808,29.6896],[-95.43736,29.68983],[-95.43526,29.69072],[-95.43475,29.69083],[-95.43469,29.69074],[-95.43466,29.68629],[-95.43475,29.68624],[-95.4399,29.68618],[-95.43996,29.68627],[-95.43996,29.68729],[-95.43983,29.68767],[-95.43998,29.688]]]}}]}